{
    "links": {
        "self": "http://www.neowsapp.com/rest/v1/neo/3265904?api_key=iIulBulltgU6a56xZRHN4H3l9WmuAYTsLGpBGhQ2"
    },
    "id": "3265904",
    "neo_reference_id": "3265904",
    "name": "(2005 AX28)",
    "designation": "2005 AX28",
    "nasa_jpl_url": "http://ssd.jpl.nasa.gov/sbdb.cgi?sstr=3265904",
    "absolute_magnitude_h": 25.2,
    "estimated_diameter": {
        "kilometers": {
            "estimated_diameter_min": 0.0242412481,
            "estimated_diameter_max": 0.0542050786
        },
        "meters": {
            "estimated_diameter_min": 24.2412481101,
            "estimated_diameter_max": 54.2050786336
        },
        "miles": {
            "estimated_diameter_min": 0.0150628086,
            "estimated_diameter_max": 0.0336814639
        },
        "feet": {
            "estimated_diameter_min": 79.5316564495,
            "estimated_diameter_max": 177.8381901842
        }
    },
    "is_potentially_hazardous_asteroid": false,
    "close_approach_data": [
        {
            "close_approach_date": "2005-01-19",
            "close_approach_date_full": "2005-Jan-19 02:28",
            "epoch_date_close_approach": 1106101680000,
            "relative_velocity": {
                "kilometers_per_second": "17.0251751945",
                "kilometers_per_hour": "61290.6307001406",
                "miles_per_hour": "38083.6143925401"
            },
            "miss_distance": {
                "astronomical": "0.0140901655",
                "lunar": "5.4810743795",
                "kilometers": "2107858.746747485",
                "miles": "1309762.690725893"
            },
            "orbiting_body": "Earth"
        }
    ],
    "orbital_data": {
        "orbit_id": "8",
        "orbit_determination_date": "2017-04-06 09:11:35",
        "first_observation_date": "2005-01-15",
        "last_observation_date": "2005-01-18",
        "data_arc_in_days": 3,
        "observations_used": 24,
        "orbit_uncertainty": "8",
        "minimum_orbit_intersection": ".0115867",
        "jupiter_tisserand_invariant": "3.376",
        "epoch_osculation": "2453387.5",
        "eccentricity": ".6554825937919165",
        "semi_major_axis": "2.157492654074585",
        "inclination": "7.577496489207785",
        "ascending_node_longitude": "113.5342877031578",
        "orbital_period": "1157.503773208967",
        "perihelion_distance": ".7432937730947698",
        "perihelion_argument": "72.81272493834524",
        "aphelion_distance": "3.5716915350544",
        "perihelion_time": "2453431.445330576526",
        "mean_anomaly": "346.3323823440416",
        "mean_motion": ".3110141049492789",
        "equinox": "J2000",
        "orbit_class": {
            "orbit_class_type": "APO",
            "orbit_class_description": "Near-Earth asteroid orbits which cross the Earth’s orbit similar to that of 1862 Apollo",
            "orbit_class_range": "a (semi-major axis) > 1.0 AU; q (perihelion) < 1.017 AU"
        }
    },
    "is_sentry_object": false
}